GAOFEN-3                
1 41727U 16049A   26170.85909757 -.00000249  00000+0 -62517-4 0  9998
2 41727  98.4009 178.6049 0001447  99.6720 260.4633 14.42214829519036
SKYSAT-C4               
1 41771U 16058B   26170.33525208  .00014681  00000+0  27618-3 0  9990
2 41771  96.9169 192.0176 0001529 136.5061 223.6312 15.48643082545809
SKYSAT-C5               
1 41772U 16058C   26170.64715951  .00006140  00000+0  18597-3 0  9998
2 41772  97.0465 211.1780 0000903 290.3567  69.7580 15.34498754544129
SKYSAT-C2               
1 41773U 16058D   26170.33583932  .00010427  00000+0  24547-3 0  9992
2 41773  97.0165 192.3500 0004539  66.0921 294.0802 15.42111954545380
SKYSAT-C3               
1 41774U 16058E   26170.65698410  .00018740  00000+0  30576-3 0  9991
2 41774  96.9001 201.4082 0001411 100.4951 259.6462 15.52629142546493
ALSAT-1B                
1 41785U 16059C   26170.82278784  .00000182  00000+0  36286-4 0  9997
2 41785  97.7746 179.4730 0008297 210.3942 149.6786 14.72276135520966
PATHFINDER 1            
1 41787U 16059E   26170.31818894  .00000428  00000+0  82953-4 0  9990
2 41787  97.8166 169.4983 0027969 196.6422 163.3869 14.67665187520025
SCATSAT 1               
1 41790U 16059H   26170.71558507  .00000823  00000+0  11495-3 0  9991
2 41790  98.1190 234.5078 0053472 239.1472 120.4473 14.79529939101965
GOKTURK 1A              
1 41875U 16073A   26170.84508824  .00000277  00000+0  63408-4 0  9997
2 41875  98.1245  65.4780 0001423  77.2506 282.8854 14.62776322509217
RESOURCESAT-2A          
1 41877U 16074A   26170.81569910  .00000263  00000+0  13986-3 0  9990
2 41877  98.7524 244.2989 0003283  79.8999 280.2548 14.21617930494672
CARTOSAT-2D             
1 41948U 17008A   26170.85891323  .00000872  00000+0  44624-4 0  9997
2 41948  97.4097 230.1156 0003977 223.3930 136.6992 15.19217380517983
SENTINEL-2B             
1 42063U 17013A   26170.86483477 -.00000016  00000+0  10695-4 0  9992
2 42063  98.5689 245.6017 0001177  86.7392 273.3925 14.30817452485023
CARTOSAT-2E             
1 42767U 17036C   26170.81081666  .00002864  00000+0  13904-3 0  9994
2 42767  97.4267 230.5703 0002225 307.5148  52.5884 15.19269934498543
FORMOSAT-5              
1 42920U 17049A   26170.81143491  .00000098  00000+0  35857-4 0  9993
2 42920  98.2254 246.0629 0012643  77.0959 283.1648 14.50899632467052
SENTINEL-5P             
1 42969U 17064A   26170.66889080  .00000038  00000+0  38842-4 0  9998
2 42969  98.7925 112.7826 0000992  87.0975 273.0314 14.19519301449916
SKYSAT-C11              
1 42987U 17068A   26170.36956258  .00025137  00000+0  33662-3 0  9992
2 42987  97.4361 319.2953 0000540  92.5632 267.5686 15.57990607483587
SKYSAT-C10              
1 42988U 17068B   26170.83528242  .00007485  00000+0  22516-3 0  9995
2 42988  97.4514 307.7080 0001104  99.9249 260.2118 15.34675476482761
SKYSAT-C9               
1 42989U 17068C   26170.83537602  .00011082  00000+0  26495-3 0  9994
2 42989  97.4434 308.6682 0009470 124.6971 235.5169 15.41617674483163
SKYSAT-C8               
1 42990U 17068D   26170.34688538  .00008658  00000+0  24141-3 0  9998
2 42990  97.4531 307.0228 0001428  94.6460 265.4947 15.37011151482647
SKYSAT-C7               
1 42991U 17068E   26170.34057334  .00009071  00000+0  25300-3 0  9991
2 42991  97.4542 308.0060 0007200 100.6043 259.6012 15.36962434482707
SKYSAT-C6               
1 42992U 17068F   26170.62518389  .00007529  00000+0  22948-3 0  9996
2 42992  97.4577 308.2553 0004535 131.3931 228.7702 15.34245695482692
CARTOSAT-2F             
1 43111U 18004A   26170.84306293  .00002013  00000+0  98820-4 0  9990
2 43111  97.4780 230.4520 0000966 195.1312 164.9894 15.19227920467732
GAOFEN-1 02             
1 43259U 18031A   26170.87377733  .00000550  00000+0  86469-4 0  9993
2 43259  98.0521 233.3938 0003628  27.5843 332.5558 14.76459477443094
GAOFEN-1 03             
1 43260U 18031B   26170.85190440  .00000523  00000+0  82502-4 0  9995
2 43260  98.0517 233.2299 0003686  73.7050 286.4565 14.76472186443083
GAOFEN-1 04             
1 43262U 18031D   26170.82766203  .00000758  00000+0  11643-3 0  9997
2 43262  98.0523 233.3969 0002170  74.1128 286.0321 14.76438428443071
SENTINEL-3B             
1 43437U 18039A   26170.71438664  .00000070  00000+0  47152-4 0  9996
2 43437  98.6248 238.2105 0000727  93.2491 266.8773 14.26735355424487
GAOFEN-5 01             
1 43461U 18043A   26170.87043692  .00000246  00000+0  60681-4 0  9995
2 43461  98.4569 142.5129 0003027  79.1483 281.0057 14.60607080432081
GAOFEN-6                
1 43484U 18048A   26170.84948226 -.00000213  00000+0 -23140-4 0  9994
2 43484  97.9705 233.5627 0011821 157.2646 202.9090 14.76598730433781
GAOFEN-11 01            
1 43585U 18063A   26170.87554558  .00011086  00000+0  16467-3 0  9998
2 43585  97.1288 237.7470 0002742 345.4850  14.6326 15.55352059440769
ICESAT-2                
1 43613U 18070A   26170.70869015  .00007646  00000+0  27714-3 0  9991
2 43613  92.0083 291.6603 0006101 101.5996 258.5939 15.28319761432842
