OBJECT_NAME,OBJECT_ID,EPOCH,MEAN_MOTION,ECCENTRICITY,INCLINATION,RA_OF_ASC_NODE,ARG_OF_PERICENTER,MEAN_ANOMALY,EPHEMERIS_TYPE,CLASSIFICATION_TYPE,NORAD_CAT_ID,ELEMENT_SET_NO,REV_AT_EPOCH,BSTAR,MEAN_MOTION_DOT,MEAN_MOTION_DDOT
GAOFEN-3,2016-049A,2026-06-19T20:37:06.030048,14.42214829,.0001447,98.4009,178.6049,99.6720,260.4633,0,U,41727,999,51903,-.62517E-4,-.249E-5,0
SKYSAT-C4,2016-058B,2026-06-19T08:02:45.779712,15.48643082,.00015293,96.9169,192.0176,136.5061,223.6312,0,U,41771,999,54580,.27618292E-3,.14681E-3,0
SKYSAT-C5,2016-058C,2026-06-19T15:31:54.581664,15.34498754,.0000903,97.0465,211.1780,290.3567,69.7580,0,U,41772,999,54412,.18597E-3,.614E-4,0
SKYSAT-C2,2016-058D,2026-06-19T08:03:36.517248,15.42111954,.00045391,97.0165,192.3500,66.0921,294.0802,0,U,41773,999,54538,.24547204E-3,.10427E-3,0
SKYSAT-C3,2016-058E,2026-06-19T15:46:03.426240,15.52629142,.0001411,96.9001,201.4082,100.4951,259.6462,0,U,41774,999,54649,.30576E-3,.1874E-3,0
ALSAT-1B,2016-059C,2026-06-19T19:44:48.869376,14.72276135,.0008297,97.7746,179.4730,210.3942,149.6786,0,U,41785,999,52096,.36286E-4,.182E-5,0
PATHFINDER 1,2016-059E,2026-06-19T07:38:11.524416,14.67665187,.00279698,97.8166,169.4983,196.6422,163.3869,0,U,41787,999,52002,.82952601E-4,.428E-5,0
SCATSAT 1,2016-059H,2026-06-19T17:10:26.550048,14.79529939,.0053472,98.1190,234.5078,239.1472,120.4473,0,U,41790,999,10196,.11495E-3,.823E-5,0
GOKTURK 1A,2016-073A,2026-06-19T20:16:55.623936,14.62776322,.0001423,98.1245,65.4780,77.2506,282.8854,0,U,41875,999,50921,.63408E-4,.277E-5,0
RESOURCESAT-2A,2016-074A,2026-06-19T19:34:36.402240,14.21617930,.0003283,98.7524,244.2989,79.8999,280.2548,0,U,41877,999,49467,.13986E-3,.263E-5,0
CARTOSAT-2D,2017-008A,2026-06-19T20:36:50.103072,15.19217380,.0003977,97.4097,230.1156,223.3930,136.6992,0,U,41948,999,51798,.44624E-4,.872E-5,0
SENTINEL-2B,2017-013A,2026-06-19T20:45:21.724128,14.30817452,.0001177,98.5689,245.6017,86.7392,273.3925,0,U,42063,999,48502,.10695E-4,-.16E-6,0
CARTOSAT-2E,2017-036C,2026-06-19T19:27:34.559424,15.19269934,.0002225,97.4267,230.5703,307.5148,52.5884,0,U,42767,999,49854,.13904E-3,.2864E-4,0
FORMOSAT-5,2017-049A,2026-06-19T19:28:27.976224,14.50899632,.0012643,98.2254,246.0629,77.0959,283.1648,0,U,42920,999,46705,.35857E-4,.98E-6,0
SENTINEL-5P,2017-064A,2026-06-19T16:03:12.165120,14.19519301,.0000992,98.7925,112.7826,87.0975,273.0314,0,U,42969,999,44991,.38842E-4,.38E-6,0
SKYSAT-C11,2017-068A,2026-06-19T08:52:10.206912,15.57990607,.00005403,97.4361,319.2953,92.5632,267.5686,0,U,42987,999,48358,.33662112E-3,.25137E-3,0
SKYSAT-C10,2017-068B,2026-06-19T20:02:48.401088,15.34675476,.0001104,97.4514,307.7080,99.9249,260.2118,0,U,42988,999,48276,.22516E-3,.7485E-4,0
SKYSAT-C9,2017-068C,2026-06-19T20:02:56.488128,15.41617674,.000947,97.4434,308.6682,124.6971,235.5169,0,U,42989,999,48316,.26495E-3,.11082E-3,0
SKYSAT-C8,2017-068D,2026-06-19T08:19:30.896832,15.37011151,.00014283,97.4531,307.0228,94.6460,265.4947,0,U,42990,999,48264,.24141092E-3,.8658E-4,0
SKYSAT-C7,2017-068E,2026-06-19T08:10:25.536576,15.36962434,.00072001,97.4542,308.0060,100.6043,259.6012,0,U,42991,999,48270,.25300398E-3,.9071E-4,0
SKYSAT-C6,2017-068F,2026-06-19T15:00:15.888096,15.34245695,.00045352,97.4577,308.2553,131.3931,228.7702,0,U,42992,999,48269,.22948328E-3,.7529E-4,0
CARTOSAT-2F,2018-004A,2026-06-19T20:14:00.637152,15.19227920,.0000966,97.4780,230.4520,195.1312,164.9894,0,U,43111,999,46773,.9882E-4,.2013E-4,0
GAOFEN-1 02,2018-031A,2026-06-19T20:58:14.361312,14.76459477,.0003628,98.0521,233.3938,27.5843,332.5558,0,U,43259,999,44309,.86469E-4,.55E-5,0
GAOFEN-1 03,2018-031B,2026-06-19T20:26:44.540160,14.76472186,.0003686,98.0517,233.2299,73.7050,286.4565,0,U,43260,999,44308,.82502E-4,.523E-5,0
GAOFEN-1 04,2018-031D,2026-06-19T19:51:49.999392,14.76438428,.000217,98.0523,233.3969,74.1128,286.0321,0,U,43262,999,44307,.11643E-3,.758E-5,0
SENTINEL-3B,2018-039A,2026-06-19T17:08:43.005696,14.26735355,.0000727,98.6248,238.2105,93.2491,266.8773,0,U,43437,999,42448,.47152E-4,.7E-6,0
GAOFEN-5 01,2018-043A,2026-06-19T20:53:25.749888,14.60607080,.0003027,98.4569,142.5129,79.1483,281.0057,0,U,43461,999,43208,.60681E-4,.246E-5,0
GAOFEN-6,2018-048A,2026-06-19T20:23:15.267264,14.76598730,.0011821,97.9705,233.5627,157.2646,202.9090,0,U,43484,999,43378,-.2314E-4,-.213E-5,0
GAOFEN-11 01,2018-063A,2026-06-19T21:00:47.138112,15.55352059,.0002742,97.1288,237.7470,345.4850,14.6326,0,U,43585,999,44076,.16467E-3,.11086E-3,0
ICESAT-2,2018-070A,2026-06-19T17:00:30.828960,15.28319761,.0006101,92.0083,291.6603,101.5996,258.5939,0,U,43613,999,43284,.27714E-3,.7646E-4,0
